{
 "cells": [
  {
   "cell_type": "code",
   "execution_count": 1,
   "metadata": {},
   "outputs": [],
   "source": [
    "import pandas as pd\n",
    "import numpy as np"
   ]
  },
  {
   "cell_type": "code",
   "execution_count": 3,
   "metadata": {},
   "outputs": [],
   "source": [
    "week1 = pd.read_csv(\"./Data/AstroYWeek1DataSet.csv\")\n",
    "week2 = pd.read_csv(\"./Data/AstroYWeek2DataSet(Corrected).csv\")\n",
    "week3 = pd.read_csv(\"./Data/AstroYWeek3DataSet.csv\")\n",
    "week4 = pd.read_csv(\"./Data/AstroYWeek4DataSet.csv\")"
   ]
  },
  {
   "cell_type": "code",
   "execution_count": 6,
   "metadata": {},
   "outputs": [
    {
     "name": "stdout",
     "output_type": "stream",
     "text": [
      "        NORAD_CAT_ID    MEAN_MOTION   ECCENTRICITY    INCLINATION  \\\n",
      "count  101799.000000  101799.000000  101799.000000  101799.000000   \n",
      "mean    50489.865883      13.814968       0.001982      86.441973   \n",
      "std     29136.266258       4.310947       0.003440      19.371962   \n",
      "min        43.000000       0.057840       0.000000       0.047100   \n",
      "25%     24965.000000      14.883887       0.000519      82.479350   \n",
      "50%     51035.000000      15.121627       0.001119      97.431500   \n",
      "75%     75749.000000      15.251921       0.001816      97.715300   \n",
      "max     99857.000000      16.566982       0.052344     144.559200   \n",
      "\n",
      "       RA_OF_ASC_NODE  ARG_OF_PERICENTER   MEAN_ANOMALY  SEMIMAJOR_AXIS  \\\n",
      "count   101799.000000      101799.000000  101799.000000   101799.000000   \n",
      "mean       166.141870         163.618218     177.457484     6900.840338   \n",
      "std        118.689105         115.449894     108.801757       81.244910   \n",
      "min          0.000400           0.000000       0.001700     6499.893000   \n",
      "25%         53.363500          59.947950      76.790150     6868.340500   \n",
      "50%        162.857500         152.114500     178.908500     6907.547000   \n",
      "75%        281.340000         272.470150     273.465750     6964.985500   \n",
      "max        359.998800         359.999100     359.999000     7313.199888   \n",
      "\n",
      "              PERIOD         APOGEE        PERIGEE  \n",
      "count  101799.000000  101799.000000  101799.000000  \n",
      "mean      599.483576     536.353415     509.056903  \n",
      "std      1612.465726      82.397795      86.708842  \n",
      "min        86.919000     136.430000      77.717644  \n",
      "25%        94.414000     495.994000     475.886500  \n",
      "50%        95.227000     547.082000     510.902000  \n",
      "75%        96.748000     603.288000     572.152000  \n",
      "max      6224.037000    1308.276988     647.957000  \n",
      "        NORAD_CAT_ID    MEAN_MOTION   ECCENTRICITY    INCLINATION  \\\n",
      "count  152244.000000  152244.000000  152244.000000  152244.000000   \n",
      "mean    50408.587419      11.618013       0.062594      73.416764   \n",
      "std     28989.274520       4.930312       0.175033      31.403125   \n",
      "min         5.000000       0.242866       0.000000       0.000000   \n",
      "25%     25221.000000      12.414595       0.001245      64.957050   \n",
      "50%     50650.000000      14.001033       0.004105      82.898750   \n",
      "75%     75458.000000      14.490905       0.014271      98.510300   \n",
      "max     99996.000000      16.503480       0.931168     144.640000   \n",
      "\n",
      "       RA_OF_ASC_NODE  ARG_OF_PERICENTER   MEAN_ANOMALY  SEMIMAJOR_AXIS  \\\n",
      "count   152244.000000       152244.00000  152244.000000   152244.000000   \n",
      "mean       178.339508          178.11897     179.872822    12253.529631   \n",
      "std        116.220018          104.83509     107.092997    11046.702467   \n",
      "min          0.001400            0.00000       0.000900     6516.556000   \n",
      "25%         64.566150           85.27110      85.880175     7106.757250   \n",
      "50%        179.089200          181.54575     176.697650     7271.573500   \n",
      "75%        289.940800          268.76230     275.659925     7878.559000   \n",
      "max        359.998200          359.99740     359.997600   108515.298000   \n",
      "\n",
      "              PERIOD         APOGEE        PERIGEE  \n",
      "count  152244.000000  152244.000000  152244.000000  \n",
      "mean      281.826102    7172.256691    4578.532512  \n",
      "std       415.575970   13119.992733   10450.280008  \n",
      "min        87.254000     139.846000      63.194000  \n",
      "25%        99.372000     771.852250     614.508500  \n",
      "50%       102.849000     965.992000     787.668500  \n",
      "75%       115.992000    1669.413750    1093.683000  \n",
      "max      5929.201000  197294.931000   39889.825000  \n",
      "       NORAD_CAT_ID  MEAN_MOTION  ECCENTRICITY  INCLINATION  RA_OF_ASC_NODE  \\\n",
      "count   8591.000000  8591.000000   8591.000000  8591.000000     8591.000000   \n",
      "mean   50557.476894    12.203092      0.056978    79.705995      168.283515   \n",
      "std    28986.314087     4.688421      0.168431    28.659253      103.229997   \n",
      "min        5.000000     0.442191      0.000000     0.001400        0.012400   \n",
      "25%    24863.000000    12.664368      0.000123    71.077300       82.075000   \n",
      "50%    51048.000000    14.294264      0.002080    97.584000      158.346000   \n",
      "75%    75457.000000    15.019143      0.010593    97.748000      259.881000   \n",
      "max    99996.000000    16.155039      0.854727   144.241700      359.888100   \n",
      "\n",
      "       ARG_OF_PERICENTER  MEAN_ANOMALY  SEMIMAJOR_AXIS       PERIOD  \\\n",
      "count        8591.000000   8591.000000     8591.000000  8591.000000   \n",
      "mean          137.211629    183.119314    11181.698005   241.950665   \n",
      "std           118.053994    106.262872     9801.043801   362.402569   \n",
      "min             0.000000      0.000000     6609.924000    89.136000   \n",
      "25%             7.396500     90.711900     6939.130783    95.878000   \n",
      "50%           120.328900    184.471200     7171.785000   100.739000   \n",
      "75%           242.361050    275.153250     7774.625000   113.704500   \n",
      "max           359.969900    359.963600    72777.230000  3256.514000   \n",
      "\n",
      "              APOGEE       PERIGEE  \n",
      "count    8591.000000   8591.000000  \n",
      "mean     5953.357913   3653.767035  \n",
      "std     11816.577319   9176.045512  \n",
      "min       252.384000     92.321000  \n",
      "25%       560.993783    560.993783  \n",
      "50%       838.992000    684.496000  \n",
      "75%      1476.925000    932.878000  \n",
      "max    106080.784000  39888.773000  \n",
      "       NORAD_CAT_ID  MEAN_MOTION  ECCENTRICITY  INCLINATION  RA_OF_ASC_NODE  \\\n",
      "count   5557.000000  5557.000000   5557.000000  5557.000000     5557.000000   \n",
      "mean   51156.105093    12.216661      0.059880    81.250328      162.031642   \n",
      "std    28945.303819     4.763915      0.169221    28.578743       96.783693   \n",
      "min        5.000000     0.253193      0.000000     0.002800        0.014900   \n",
      "25%    25370.000000    12.635692      0.000000    74.005300       88.009000   \n",
      "50%    52492.000000    14.432824      0.001429    97.622000      144.346000   \n",
      "75%    75759.000000    15.019143      0.009519    97.746000      219.532000   \n",
      "max    99996.000000    15.973472      0.933672   144.621600      359.944800   \n",
      "\n",
      "       ARG_OF_PERICENTER  MEAN_ANOMALY  SEMIMAJOR_AXIS       PERIOD  \\\n",
      "count        5557.000000   5557.000000     5557.000000  5557.000000   \n",
      "mean          122.942557    181.706005    11252.185485   245.419105   \n",
      "std           119.463345    105.282588    10021.521094   378.403547   \n",
      "min             0.000000      0.000000     6659.919000    90.149000   \n",
      "25%             0.000000     92.370800     6939.130783    95.878000   \n",
      "50%            95.138000    181.931000     7125.811000    99.772000   \n",
      "75%           227.922000    271.341600     7786.384000   113.962000   \n",
      "max           359.908200    359.960000   105544.100000  5687.359000   \n",
      "\n",
      "              APOGEE       PERIGEE  \n",
      "count    5557.000000   5557.000000  \n",
      "mean     6060.781878   3687.317428  \n",
      "std     12372.981727   9273.507849  \n",
      "min       285.525000    134.549000  \n",
      "25%       560.993783    560.993783  \n",
      "50%       775.693000    581.967109  \n",
      "75%      1510.021000    834.673000  \n",
      "max    197709.506000  37536.415000  \n"
     ]
    }
   ],
   "source": [
    "weeks = [week1,week2,week3,week4]\n",
    "for week in weeks:\n",
    "    print(week.describe())"
   ]
  },
  {
   "cell_type": "code",
   "execution_count": 9,
   "metadata": {},
   "outputs": [],
   "source": [
    "all_data = pd.concat(weeks)\n",
    "all_data.to_csv(\"./Data/AllWeeks.csv\")"
   ]
  }
 ],
 "metadata": {
  "kernelspec": {
   "display_name": "Python 3",
   "language": "python",
   "name": "python3"
  },
  "language_info": {
   "codemirror_mode": {
    "name": "ipython",
    "version": 3
   },
   "file_extension": ".py",
   "mimetype": "text/x-python",
   "name": "python",
   "nbconvert_exporter": "python",
   "pygments_lexer": "ipython3",
   "version": "3.7.3"
  }
 },
 "nbformat": 4,
 "nbformat_minor": 2
}
